{"type":"FeatureCollection","features":[{"type":"Feature","geometry":{"type":"Polygon","coordinates":[[[-77.601,40.238],[-77.653,40.211],[-77.65,40.226],[-77.712,40.174],[-77.764,40.208],[-77.859,40.065],[-77.919,40.004],[-77.956,39.927],[-77.963,39.959],[-77.916,40.039],[-77.927,40.049],[-77.959,40.022],[-78.017,40.059],[-78.055,40.032],[-78.113,40.036],[-78.152,40.02],[-78.13,40.009],[-78.138,39.992],[-78.295,39.826],[-78.274,39.912],[-78.316,39.902],[-78.342,39.913],[-78.396,39.845],[-78.421,39.853],[-78.423,39.902],[-78.449,39.911],[-78.559,39.848],[-78.582,39.857],[-78.576,39.89],[-78.597,39.893],[-78.581,39.929],[-78.6,39.939],[-78.647,39.873],[-78.666,39.882],[-78.642,39.933],[-78.702,39.965],[-78.762,39.958],[-78.79,39.928],[-78.843,39.944],[-78.971,39.823],[-78.911,39.767],[-78.925,39.722],[-78.966,39.686],[-79.074,39.674],[-79.187,39.597],[-79.239,39.545],[-79.228,39.508],[-79.207,39.513],[-79.227,39.476],[-79.286,39.445],[-79.275,39.419],[-79.51,39.214],[-79.505,39.192],[-79.467,39.179],[-79.344,39.214],[-79.307,39.21],[-79.289,39.189],[-79.331,39.15],[-79.331,39.118],[-79.355,39.086],[-79.298,39.074],[-79.304,39.047],[-79.368,38.924],[-79.454,38.93],[-79.447,38.9],[-79.52,38.892],[-79.513,38.867],[-79.539,38.841],[-79.509,38.784],[-79.598,38.687],[-79.596,38.663],[-79.626,38.667],[-79.634,38.636],[-79.619,38.62],[-79.663,38.571],[-79.673,38.529],[-79.662,38.515],[-79.695,38.494],[-79.699,38.47],[-79.687,38.431],[-79.656,38.482],[-79.64,38.484],[-79.626,38.468],[-79.646,38.438],[-79.563,38.398],[-79.547,38.412],[-79.513,38.405],[-79.474,38.463],[-79.405,38.419],[-79.409,38.4],[-79.394,38.39],[-79.347,38.411],[-79.299,38.364],[-79.305,38.349],[-79.265,38.313],[-79.288,38.275],[-79.277,38.243],[-79.296,38.213],[-79.29,38.19],[-79.315,38.169],[-79.263,38.149],[-79.261,38.11],[-79.309,38.056],[-79.286,38.037],[-79.229,38.047],[-79.236,38.032],[-79.216,38.024],[-79.24,37.987],[-79.224,37.965],[-79.167,37.955],[-79.142,37.935],[-79.072,37.952],[-79.044,37.931],[-79.063,37.918],[-79.044,37.891],[-79.006,37.882],[-78.942,37.94],[-78.899,37.949],[-78.893,37.975],[-78.907,37.987],[-78.874,38.028],[-78.78,38.083],[-78.788,38.127],[-78.745,38.214],[-78.707,38.246],[-78.662,38.254],[-78.652,38.294],[-78.551,38.336],[-78.545,38.363],[-78.523,38.37],[-78.465,38.447],[-78.441,38.49],[-78.443,38.528],[-78.381,38.561],[-78.383,38.588],[-78.326,38.631],[-78.314,38.683],[-78.332,38.705],[-78.319,38.738],[-78.279,38.762],[-78.201,38.777],[-78.169,38.834],[-78.112,38.887],[-78.025,38.896],[-77.966,38.868],[-77.952,38.84],[-77.945,38.868],[-77.928,38.855],[-77.895,38.872],[-77.85,38.865],[-77.813,38.831],[-77.845,38.808],[-77.846,38.786],[-77.831,38.763],[-77.836,38.734],[-77.795,38.714],[-77.81,38.704],[-77.802,38.649],[-77.816,38.634],[-77.793,38.612],[-77.738,38.614],[-77.699,38.587],[-77.695,38.551],[-77.668,38.527],[-77.642,38.535],[-77.58,38.488],[-77.592,38.43],[-77.575,38.429],[-77.572,38.401],[-77.54,38.411],[-77.532,38.382],[-77.464,38.368],[-77.432,38.33],[-77.375,38.325],[-77.373,38.306],[-77.235,38.296],[-76.981,38.135],[-76.81,38.154],[-76.783,38.118],[-76.801,38.109],[-76.8,38.093],[-76.728,37.998],[-76.693,37.988],[-76.662,38.008],[-76.606,37.949],[-76.556,37.932],[-76.543,37.902],[-76.504,37.891],[-76.486,37.922],[-76.445,37.92],[-76.42,37.891],[-76.367,37.888],[-76.31,37.924],[-76.241,37.89],[-76.201,37.893],[-76.321,38.035],[-76.327,38.062],[-76.367,38.095],[-76.362,38.144],[-76.411,38.237],[-76.533,38.308],[-76.588,38.369],[-76.68,38.416],[-76.715,38.419],[-76.776,38.471],[-76.773,38.521],[-76.802,38.559],[-76.792,38.596],[-76.771,38.604],[-76.786,38.629],[-76.766,38.643],[-76.843,38.701],[-76.832,38.733],[-76.805,38.751],[-76.863,38.84],[-76.904,38.857],[-76.846,38.925],[-76.865,38.992],[-76.811,39.006],[-76.821,39.045],[-76.869,39.059],[-76.91,39.106],[-76.985,39.122],[-77.012,39.15],[-77.067,39.143],[-77.086,39.173],[-77.14,39.204],[-77.155,39.275],[-77.205,39.289],[-77.194,39.342],[-77.076,39.461],[-77.079,39.488],[-77.059,39.515],[-77.038,39.539],[-77.026,39.524],[-76.992,39.547],[-77.003,39.61],[-76.968,39.629],[-76.921,39.63],[-76.886,39.657],[-76.903,39.695],[-76.965,39.7],[-77.053,39.734],[-77.052,39.75],[-77.088,39.77],[-77.083,39.781],[-77.12,39.796],[-77.143,39.854],[-77.184,39.89],[-77.186,39.921],[-77.241,39.883],[-77.244,39.898],[-77.28,39.897],[-77.328,39.926],[-77.421,39.899],[-77.426,39.922],[-77.388,39.962],[-77.407,40.002],[-77.487,39.96],[-77.553,40.007],[-77.579,39.985],[-77.61,39.998],[-77.622,39.986],[-77.747,40.05],[-77.884,39.943],[-77.86,40.005],[-77.719,40.13],[-77.701,40.141],[-77.695,40.13],[-77.596,40.212],[-77.597,40.226],[-77.612,40.218],[-77.601,40.238]]]},"properties":{"huc4":"0207","name":"Potomac"}}]}